CCSDS_OMM_VERS = 2.0
CREATION_DATE  = 
ORIGINATOR     = 

OBJECT_NAME    = IDEFIX & ARIANE 42P R/B
OBJECT_ID      = 2002-021B
CENTER_NAME    = EARTH
REF_FRAME      = TEME
TIME_SYSTEM    = UTC
MEAN_ELEMENT_THEORY = SGP/SGP4

EPOCH          = 2026-01-08T18:47:55.372992
MEAN_MOTION    = 14.30975354
ECCENTRICITY   = .0012092
INCLINATION    = 98.5815
RA_OF_ASC_NODE = 308.1276
ARG_OF_PERICENTER = 9.3995
MEAN_ANOMALY   = 350.7412

EPHEMERIS_TYPE = 0
CLASSIFICATION_TYPE = U
NORAD_CAT_ID   = 27422
ELEMENT_SET_NO = 999
REV_AT_EPOCH   = 23545
BSTAR          = .16786E-3
MEAN_MOTION_DOT = .398E-5
MEAN_MOTION_DDOT = 0

CCSDS_OMM_VERS = 2.0
CREATION_DATE  = 
ORIGINATOR     = 

OBJECT_NAME    = AQUA
OBJECT_ID      = 2002-022A
CENTER_NAME    = EARTH
REF_FRAME      = TEME
TIME_SYSTEM    = UTC
MEAN_ELEMENT_THEORY = SGP/SGP4

EPOCH          = 2026-01-09T00:04:48.184608
MEAN_MOTION    = 14.61808998
ECCENTRICITY   = .0002026
INCLINATION    = 98.4075
RA_OF_ASC_NODE = 335.3304
ARG_OF_PERICENTER = 85.7625
MEAN_ANOMALY   = 349.1392

EPHEMERIS_TYPE = 0
CLASSIFICATION_TYPE = U
NORAD_CAT_ID   = 27424
ELEMENT_SET_NO = 999
REV_AT_EPOCH   = 26001
BSTAR          = .21942E-3
MEAN_MOTION_DOT = .1046E-4
MEAN_MOTION_DDOT = 0

CCSDS_OMM_VERS = 2.0
CREATION_DATE  = 
ORIGINATOR     = 

OBJECT_NAME    = CZ-4B R/B
OBJECT_ID      = 2002-024C
CENTER_NAME    = EARTH
REF_FRAME      = TEME
TIME_SYSTEM    = UTC
MEAN_ELEMENT_THEORY = SGP/SGP4

EPOCH          = 2026-01-09T00:29:26.557728
MEAN_MOTION    = 14.14534836
ECCENTRICITY   = .0050026
INCLINATION    = 98.8957
RA_OF_ASC_NODE = 62.6915
ARG_OF_PERICENTER = 191.4247
MEAN_ANOMALY   = 233.3747

EPHEMERIS_TYPE = 0
CLASSIFICATION_TYPE = U
NORAD_CAT_ID   = 27432
ELEMENT_SET_NO = 999
REV_AT_EPOCH   = 22080
BSTAR          = .46529E-4
MEAN_MOTION_DOT = .46E-6
MEAN_MOTION_DDOT = 0

CCSDS_OMM_VERS = 2.0
CREATION_DATE  = 
ORIGINATOR     = 

OBJECT_NAME    = MIDORI II (ADEOS-II)
OBJECT_ID      = 2002-056A
CENTER_NAME    = EARTH
REF_FRAME      = TEME
TIME_SYSTEM    = UTC
MEAN_ELEMENT_THEORY = SGP/SGP4

EPOCH          = 2026-01-09T03:48:21.961728
MEAN_MOTION    = 14.29231096
ECCENTRICITY   = .0001481
INCLINATION    = 98.7673
RA_OF_ASC_NODE = 327.2643
ARG_OF_PERICENTER = 126.2812
MEAN_ANOMALY   = 233.8506

EPHEMERIS_TYPE = 0
CLASSIFICATION_TYPE = U
NORAD_CAT_ID   = 27597
ELEMENT_SET_NO = 999
REV_AT_EPOCH   = 20179
BSTAR          = .14954E-3
MEAN_MOTION_DOT = .335E-5
MEAN_MOTION_DDOT = 0

CCSDS_OMM_VERS = 2.0
CREATION_DATE  = 
ORIGINATOR     = 

OBJECT_NAME    = H-2A R/B
OBJECT_ID      = 2002-056E
CENTER_NAME    = EARTH
REF_FRAME      = TEME
TIME_SYSTEM    = UTC
MEAN_ELEMENT_THEORY = SGP/SGP4

EPOCH          = 2026-01-09T04:02:26.860416
MEAN_MOTION    = 14.33706782
ECCENTRICITY   = .0069948
INCLINATION    = 98.3103
RA_OF_ASC_NODE = 331.8391
ARG_OF_PERICENTER = 339.9687
MEAN_ANOMALY   = 31.1175

EPHEMERIS_TYPE = 0
CLASSIFICATION_TYPE = U
NORAD_CAT_ID   = 27601
ELEMENT_SET_NO = 999
REV_AT_EPOCH   = 20558
BSTAR          = .14849E-3
MEAN_MOTION_DOT = .381E-5
MEAN_MOTION_DDOT = 0

CCSDS_OMM_VERS = 2.0
CREATION_DATE  = 
ORIGINATOR     = 

OBJECT_NAME    = CZ-4B R/B
OBJECT_ID      = 2003-049C
CENTER_NAME    = EARTH
REF_FRAME      = TEME
TIME_SYSTEM    = UTC
MEAN_ELEMENT_THEORY = SGP/SGP4

EPOCH          = 2026-01-08T13:18:14.123232
MEAN_MOTION    = 14.54942534
ECCENTRICITY   = .00492021
INCLINATION    = 98.6809
RA_OF_ASC_NODE = 1.1344
ARG_OF_PERICENTER = 55.9726
MEAN_ANOMALY   = 304.6129

EPHEMERIS_TYPE = 0
CLASSIFICATION_TYPE = U
NORAD_CAT_ID   = 28059
ELEMENT_SET_NO = 999
REV_AT_EPOCH   = 17785
BSTAR          = .14463853E-3
MEAN_MOTION_DOT = .581E-5
MEAN_MOTION_DDOT = 0

CCSDS_OMM_VERS = 2.0
CREATION_DATE  = 
ORIGINATOR     = 

OBJECT_NAME    = CZ-2C R/B
OBJECT_ID      = 2004-012C
CENTER_NAME    = EARTH
REF_FRAME      = TEME
TIME_SYSTEM    = UTC
MEAN_ELEMENT_THEORY = SGP/SGP4

EPOCH          = 2026-01-08T17:43:28.070112
MEAN_MOTION    = 15.57942472
ECCENTRICITY   = .0016878
INCLINATION    = 97.7367
RA_OF_ASC_NODE = 68.6295
ARG_OF_PERICENTER = 167.8705
MEAN_ANOMALY   = 192.2959

EPHEMERIS_TYPE = 0
CLASSIFICATION_TYPE = U
NORAD_CAT_ID   = 28222
ELEMENT_SET_NO = 999
REV_AT_EPOCH   = 19492
BSTAR          = .59743E-3
MEAN_MOTION_DOT = .4501E-3
MEAN_MOTION_DDOT = 0

CCSDS_OMM_VERS = 2.0
CREATION_DATE  = 
ORIGINATOR     = 

OBJECT_NAME    = SL-16 R/B
OBJECT_ID      = 2004-021B
CENTER_NAME    = EARTH
REF_FRAME      = TEME
TIME_SYSTEM    = UTC
MEAN_ELEMENT_THEORY = SGP/SGP4

EPOCH          = 2026-01-09T04:47:36.132864
MEAN_MOTION    = 14.14591035
ECCENTRICITY   = .0003522
INCLINATION    = 71.0022
RA_OF_ASC_NODE = 357.3366
ARG_OF_PERICENTER = 154.7509
MEAN_ANOMALY   = 205.3787

EPHEMERIS_TYPE = 0
CLASSIFICATION_TYPE = U
NORAD_CAT_ID   = 28353
ELEMENT_SET_NO = 999
REV_AT_EPOCH   = 11442
BSTAR          = .12206E-3
MEAN_MOTION_DOT = .187E-5
MEAN_MOTION_DDOT = 0

CCSDS_OMM_VERS = 2.0
CREATION_DATE  = 
ORIGINATOR     = 

OBJECT_NAME    = CZ-4B R/B
OBJECT_ID      = 2004-035C
CENTER_NAME    = EARTH
REF_FRAME      = TEME
TIME_SYSTEM    = UTC
MEAN_ELEMENT_THEORY = SGP/SGP4

EPOCH          = 2026-01-09T01:45:02.543904
MEAN_MOTION    = 15.27908233
ECCENTRICITY   = .00329
INCLINATION    = 97.3580
RA_OF_ASC_NODE = 44.0567
ARG_OF_PERICENTER = 177.2419
MEAN_ANOMALY   = 182.9008

EPHEMERIS_TYPE = 0
CLASSIFICATION_TYPE = U
NORAD_CAT_ID   = 28415
ELEMENT_SET_NO = 999
REV_AT_EPOCH   = 17080
BSTAR          = .2776E-3
MEAN_MOTION_DOT = .7608E-4
MEAN_MOTION_DDOT = 0

CCSDS_OMM_VERS = 2.0
CREATION_DATE  = 
ORIGINATOR     = 

OBJECT_NAME    = CZ-2C R/B
OBJECT_ID      = 2004-046B
CENTER_NAME    = EARTH
REF_FRAME      = TEME
TIME_SYSTEM    = UTC
MEAN_ELEMENT_THEORY = SGP/SGP4

EPOCH          = 2026-01-09T03:57:42.621696
MEAN_MOTION    = 14.26962708
ECCENTRICITY   = .0138971
INCLINATION    = 98.2000
RA_OF_ASC_NODE = 287.8411
ARG_OF_PERICENTER = 331.3859
MEAN_ANOMALY   = 27.9746

EPHEMERIS_TYPE = 0
CLASSIFICATION_TYPE = U
NORAD_CAT_ID   = 28480
ELEMENT_SET_NO = 999
REV_AT_EPOCH   = 10001
BSTAR          = .11174E-3
MEAN_MOTION_DOT = .259E-5
MEAN_MOTION_DDOT = 0

CCSDS_OMM_VERS = 2.0
CREATION_DATE  = 
ORIGINATOR     = 

OBJECT_NAME    = ARIANE 5 R/B
OBJECT_ID      = 2004-049H
CENTER_NAME    = EARTH
REF_FRAME      = TEME
TIME_SYSTEM    = UTC
MEAN_ELEMENT_THEORY = SGP/SGP4

EPOCH          = 2026-01-08T12:52:55.237152
MEAN_MOTION    = 14.85104981
ECCENTRICITY   = .00842537
INCLINATION    = 98.2540
RA_OF_ASC_NODE = 174.7831
ARG_OF_PERICENTER = 185.2473
MEAN_ANOMALY   = 174.7867

EPHEMERIS_TYPE = 0
CLASSIFICATION_TYPE = U
NORAD_CAT_ID   = 28499
ELEMENT_SET_NO = 999
REV_AT_EPOCH   = 13686
BSTAR          = .19190651E-3
MEAN_MOTION_DOT = .1684E-4
MEAN_MOTION_DDOT = 0

CCSDS_OMM_VERS = 2.0
CREATION_DATE  = 
ORIGINATOR     = 

OBJECT_NAME    = CZ-2D R/B
OBJECT_ID      = 2005-024B
CENTER_NAME    = EARTH
REF_FRAME      = TEME
TIME_SYSTEM    = UTC
MEAN_ELEMENT_THEORY = SGP/SGP4

EPOCH          = 2026-01-09T00:33:16.449984
MEAN_MOTION    = 15.55110944
ECCENTRICITY   = .0003464
INCLINATION    = 97.3627
RA_OF_ASC_NODE = 22.2191
ARG_OF_PERICENTER = 218.4906
MEAN_ANOMALY   = 141.6101

EPHEMERIS_TYPE = 0
CLASSIFICATION_TYPE = U
NORAD_CAT_ID   = 28738
ELEMENT_SET_NO = 999
REV_AT_EPOCH   = 13049
BSTAR          = .4637E-3
MEAN_MOTION_DOT = .31193E-3
MEAN_MOTION_DDOT = 0

