IDEFIX & ARIANE 42P R/B 
1 27422U 02021B   26008.78327978  .00000398  00000+0  16786-3 0  9999
2 27422  98.5815 308.1276 0012092   9.3995 350.7412 14.30975354235453
AQUA                    
1 27424U 02022A   26009.00333547  .00001046  00000+0  21942-3 0  9998
2 27424  98.4075 335.3304 0002026  85.7625 349.1392 14.61808998260012
CZ-4B R/B               
1 27432U 02024C   26009.02044627  .00000046  00000+0  46529-4 0  9997
2 27432  98.8957  62.6915 0050026 191.4247 233.3747 14.14534836220806
MIDORI II (ADEOS-II)    
1 27597U 02056A   26009.15858752  .00000335  00000+0  14954-3 0  9997
2 27597  98.7673 327.2643 0001481 126.2812 233.8506 14.29231096201798
H-2A R/B                
1 27601U 02056E   26009.16836644  .00000381  00000+0  14849-3 0  9994
2 27601  98.3103 331.8391 0069948 339.9687  31.1175 14.33706782205580
CZ-4B R/B               
1 28059U 03049C   26008.55433013  .00000581  00000+0  14464-3 0  9995
2 28059  98.6809   1.1344 0049202  55.9726 304.6129 14.54942534177854
CZ-2C R/B               
1 28222U 04012C   26008.73851933  .00045010  00000+0  59743-3 0  9998
2 28222  97.7367  68.6295 0016878 167.8705 192.2959 15.57942472194925
SL-16 R/B               
1 28353U 04021B   26009.19972376  .00000187  00000+0  12206-3 0  9998
2 28353  71.0022 357.3366 0003522 154.7509 205.3787 14.14591035114428
CZ-4B R/B               
1 28415U 04035C   26009.07294611  .00007608  00000+0  27760-3 0  9994
2 28415  97.3580  44.0567 0032900 177.2419 182.9008 15.27908233170809
CZ-2C R/B               
1 28480U 04046B   26009.16507664  .00000259  00000+0  11174-3 0  9990
2 28480  98.2000 287.8411 0138971 331.3859  27.9746 14.26962708100017
ARIANE 5 R/B            
1 28499U 04049H   26008.53675043  .00001684  00000+0  19191-3 0  9990
2 28499  98.2540 174.7831 0084253 185.2473 174.7867 14.85104981136860
CZ-2D R/B               
1 28738U 05024B   26009.02310706  .00031193  00000+0  46370-3 0  9994
2 28738  97.3627  22.2191 0003464 218.4906 141.6101 15.55110944130494
